[{"OBJECT_NAME":"FLOCK 4G-6","OBJECT_ID":"2025-009BD","EPOCH":"2026-03-09T17:03:16.973568","MEAN_MOTION":15.27432125,"ECCENTRICITY":0.00023795,"INCLINATION":97.398,"RA_OF_ASC_NODE":150.7943,"ARG_OF_PERICENTER":348.2637,"MEAN_ANOMALY":11.8546,"EPHEMERIS_TYPE":0,"CLASSIFICATION_TYPE":"U","NORAD_CAT_ID":62660,"ELEMENT_SET_NO":999,"REV_AT_EPOCH":12130,"BSTAR":0.00045909501,"MEAN_MOTION_DOT":0.00012261,"MEAN_MOTION_DDOT":0},{"OBJECT_NAME":"STARLINK-36511","OBJECT_ID":"2026-008G","EPOCH":"2026-03-09T09:31:29.795232","MEAN_MOTION":15.27593687,"ECCENTRICITY":0.00031759,"INCLINATION":43.0004,"RA_OF_ASC_NODE":207.2129,"ARG_OF_PERICENTER":282.3495,"MEAN_ANOMALY":77.7001,"EPHEMERIS_TYPE":0,"CLASSIFICATION_TYPE":"U","NORAD_CAT_ID":67451,"ELEMENT_SET_NO":999,"REV_AT_EPOCH":952,"BSTAR":0.0010297545,"MEAN_MOTION_DOT":0.00028197,"MEAN_MOTION_DDOT":0}]
